start=new Date('2023-02-15T00:00:00.000Z').valueOf();
sats=[{"LAUNCH_DATE":"2022-05-13","GP_ID":"225392955","RCS_SIZE":"LARGE","MEAN_MOTION":"15.08841215","SITE":"AFWTR","RA_OF_ASC_NODE":"118.5072","FILE":"3791349","BSTAR":"0.00021152000000","ARG_OF_PERICENTER":"74.9299","ELEMENT_SET_NO":"999","ECCENTRICITY":"0.00015230","MEAN_ANOMALY":"285.1862","APOAPSIS":"540.795","SEMIMAJOR_AXIS":"6917.877","TLE_LINE2":"2 52580  53.2149 118.5072 0001523  74.9299 285.1862 15.08841215 42419","REV_AT_EPOCH":"4241","EPOCH":"2023-02-14T11:13:28.839360","NORAD_CAT_ID":"52580","OBJECT_ID":"2022-051AW","MEAN_MOTION_DOT":"0.00003080","PERIAPSIS":"538.688","COUNTRY_CODE":"US","TIME_SYSTEM":"UTC","INCLINATION":"53.2149","EPHEMERIS_TYPE":"0","CENTER_NAME":"EARTH","OBJECT_NAME":"STARLINK-3919","REF_FRAME":"TEME","CLASSIFICATION_TYPE":"U","TLE_LINE1":"1 52580U 22051AW  23045.46769490  .00003080  00000-0  21152-3 0  9994","PERIOD":"95.437","MEAN_MOTION_DDOT":"0.0000000000000","OBJECT_TYPE":"PAYLOAD","DECAY_DATE":null,"MEAN_ELEMENT_THEORY":"SGP4"},{"REV_AT_EPOCH":"4261","TLE_LINE2":"2 52581  53.2149 103.7383 0001312  84.7142 275.4000 15.08837191 42619","SEMIMAJOR_AXIS":"6917.889","APOAPSIS":"540.662","MEAN_ANOMALY":"275.4000","OBJECT_ID":"2022-051AX","MEAN_MOTION_DOT":"0.00001512","NORAD_CAT_ID":"52581","EPOCH":"2023-02-14T09:58:38.136288","RA_OF_ASC_NODE":"103.7383","SITE":"AFWTR","MEAN_MOTION":"15.08837191","GP_ID":"225394206","RCS_SIZE":"LARGE","LAUNCH_DATE":"2022-05-13","ECCENTRICITY":"0.00013120","ELEMENT_SET_NO":"999","ARG_OF_PERICENTER":"84.7142","BSTAR":"0.00011309000000","FILE":"3791349","TLE_LINE1":"1 52581U 22051AX  23045.41571917  .00001512  00000-0  11309-3 0  9996","CLASSIFICATION_TYPE":"U","REF_FRAME":"TEME","OBJECT_NAME":"STARLINK-3915","CENTER_NAME":"EARTH","MEAN_ELEMENT_THEORY":"SGP4","DECAY_DATE":null,"OBJECT_TYPE":"PAYLOAD","MEAN_MOTION_DDOT":"0.0000000000000","PERIOD":"95.438","TIME_SYSTEM":"UTC","COUNTRY_CODE":"US","PERIAPSIS":"538.846","EPHEMERIS_TYPE":"0","INCLINATION":"53.2149"},{"MEAN_ELEMENT_THEORY":"SGP4","DECAY_DATE":null,"MEAN_MOTION_DDOT":"0.0000000000000","OBJECT_TYPE":"PAYLOAD","PERIOD":"95.438","CLASSIFICATION_TYPE":"U","TLE_LINE1":"1 52582U 22051AY  23045.42307495  .00001136  00000-0  89466-4 0  9998","REF_FRAME":"TEME","OBJECT_NAME":"STARLINK-3886","CENTER_NAME":"EARTH","EPHEMERIS_TYPE":"0","INCLINATION":"53.2153","TIME_SYSTEM":"UTC","PERIAPSIS":"538.551","COUNTRY_CODE":"US","OBJECT_ID":"2022-051AY","MEAN_MOTION_DOT":"0.00001136","EPOCH":"2023-02-14T10:09:13.675680","NORAD_CAT_ID":"52582","REV_AT_EPOCH":"4261","TLE_LINE2":"2 52582  53.2153 103.7112 0001730  92.0362 268.0828 15.08839101 42614","SEMIMAJOR_AXIS":"6917.883","MEAN_ANOMALY":"268.0828","APOAPSIS":"540.945","ECCENTRICITY":"0.00017300","ARG_OF_PERICENTER":"92.0362","ELEMENT_SET_NO":"999","BSTAR":"0.00008946600000","FILE":"3791349","RA_OF_ASC_NODE":"103.7112","SITE":"AFWTR","GP_ID":"225394451","RCS_SIZE":"LARGE","MEAN_MOTION":"15.08839101","LAUNCH_DATE":"2022-05-13"},{"INCLINATION":"53.2150","EPHEMERIS_TYPE":"0","PERIAPSIS":"538.759","COUNTRY_CODE":"US","TIME_SYSTEM":"UTC","PERIOD":"95.438","MEAN_MOTION_DDOT":"0.0000000000000","OBJECT_TYPE":"PAYLOAD","DECAY_DATE":null,"MEAN_ELEMENT_THEORY":"SGP4","OBJECT_NAME":"STARLINK-3895","REF_FRAME":"TEME","CENTER_NAME":"EARTH","CLASSIFICATION_TYPE":"U","TLE_LINE1":"1 52583U 22051AZ  23045.41204179  .00002258  00000-0  15996-3 0  9995","FILE":"3791349","BSTAR":"0.00015996000000","ARG_OF_PERICENTER":"79.2092","ELEMENT_SET_NO":"999","ECCENTRICITY":"0.00014420","LAUNCH_DATE":"2022-05-13","GP_ID":"225393206","RCS_SIZE":"LARGE","MEAN_MOTION":"15.08836223","RA_OF_ASC_NODE":"103.7623","SITE":"AFWTR","NORAD_CAT_ID":"52583","EPOCH":"2023-02-14T09:53:20.410656","MEAN_MOTION_DOT":"0.00002258","OBJECT_ID":"2022-051AZ","MEAN_ANOMALY":"280.9063","APOAPSIS":"540.754","SEMIMAJOR_AXIS":"6917.892","TLE_LINE2":"2 52583  53.2150 103.7623 0001442  79.2092 280.9063 15.08836223 42612","REV_AT_EPOCH":"4261"},{"TIME_SYSTEM":"UTC","COUNTRY_CODE":"US","PERIAPSIS":"538.712","INCLINATION":"53.2145","EPHEMERIS_TYPE":"0","OBJECT_NAME":"STARLINK-3922","REF_FRAME":"TEME","CENTER_NAME":"EARTH","TLE_LINE1":"1 52584U 22051BA  23045.41939752  .00003163  00000-0  21671-3 0  9991","CLASSIFICATION_TYPE":"U","OBJECT_TYPE":"PAYLOAD","MEAN_MOTION_DDOT":"0.0000000000000","PERIOD":"95.437","MEAN_ELEMENT_THEORY":"SGP4","DECAY_DATE":null,"MEAN_MOTION":"15.08844532","GP_ID":"225393456","RCS_SIZE":"LARGE","LAUNCH_DATE":"2022-05-13","RA_OF_ASC_NODE":"103.7289","SITE":"AFWTR","BSTAR":"0.00021671000000","FILE":"3791349","ECCENTRICITY":"0.00014740","ELEMENT_SET_NO":"999","ARG_OF_PERICENTER":"94.1161","SEMIMAJOR_AXIS":"6917.867","APOAPSIS":"540.751","MEAN_ANOMALY":"266.0000","REV_AT_EPOCH":"4261","TLE_LINE2":"2 52584  53.2145 103.7289 0001474  94.1161 266.0000 15.08844532 42611","NORAD_CAT_ID":"52584","EPOCH":"2023-02-14T10:03:55.945728","OBJECT_ID":"2022-051BA","MEAN_MOTION_DOT":"0.00003163"},{"SITE":"AFWTR","RA_OF_ASC_NODE":"103.2004","GP_ID":"225393706","RCS_SIZE":"LARGE","MEAN_MOTION":"15.08837584","LAUNCH_DATE":"2022-05-13","ECCENTRICITY":"0.00010850","ARG_OF_PERICENTER":"101.4979","ELEMENT_SET_NO":"999","BSTAR":"0.00005253600000","FILE":"3791349","TLE_LINE2":"2 52585  53.2153 103.2004 0001085 101.4979 258.6135 15.08837584 42635","REV_AT_EPOCH":"4263","SEMIMAJOR_AXIS":"6917.888","MEAN_ANOMALY":"258.6135","APOAPSIS":"540.503","MEAN_MOTION_DOT":"0.00000548","OBJECT_ID":"2022-051BB","EPOCH":"2023-02-14T12:53:30.779520","NORAD_CAT_ID":"52585","TIME_SYSTEM":"UTC","PERIAPSIS":"539.002","COUNTRY_CODE":"US","EPHEMERIS_TYPE":"0","INCLINATION":"53.2153","CLASSIFICATION_TYPE":"U","TLE_LINE1":"1 52585U 22051BB  23045.53716180  .00000548  00000-0  52536-4 0  9992","OBJECT_NAME":"STARLINK-3906","CENTER_NAME":"EARTH","REF_FRAME":"TEME","MEAN_ELEMENT_THEORY":"SGP4","DECAY_DATE":null,"MEAN_MOTION_DDOT":"0.0000000000000","OBJECT_TYPE":"PAYLOAD","PERIOD":"95.438"},{"TLE_LINE2":"2 52586  53.2147 103.1763 0001451  91.6385 268.4773 15.08836849 42706","REV_AT_EPOCH":"4270","MEAN_ANOMALY":"268.4773","APOAPSIS":"540.759","SEMIMAJOR_AXIS":"6917.890","MEAN_MOTION_DOT":"0.00000138","OBJECT_ID":"2022-051BC","EPOCH":"2023-02-14T12:58:48.615744","NORAD_CAT_ID":"52586","RA_OF_ASC_NODE":"103.1763","SITE":"AFWTR","LAUNCH_DATE":"2022-05-13","RCS_SIZE":"LARGE","GP_ID":"225408393","MEAN_MOTION":"15.08836849","ARG_OF_PERICENTER":"91.6385","ELEMENT_SET_NO":"999","ECCENTRICITY":"0.00014510","FILE":"3791993","BSTAR":"0.00002675500000","CLASSIFICATION_TYPE":"U","TLE_LINE1":"1 52586U 22051BC  23045.54084046  .00000138  00000-0  26755-4 0  9992","REF_FRAME":"TEME","OBJECT_NAME":"STARLINK-3910","CENTER_NAME":"EARTH","DECAY_DATE":null,"MEAN_ELEMENT_THEORY":"SGP4","PERIOD":"95.438","OBJECT_TYPE":"PAYLOAD","MEAN_MOTION_DDOT":"0.0000000000000","PERIAPSIS":"538.751","COUNTRY_CODE":"US","TIME_SYSTEM":"UTC","EPHEMERIS_TYPE":"0","INCLINATION":"53.2147"},{"REV_AT_EPOCH":"4264","TLE_LINE2":"2 52587  53.2143 102.9167 0001097  98.5187 261.5929 15.08846403 42647","APOAPSIS":"540.485","MEAN_ANOMALY":"261.5929","SEMIMAJOR_AXIS":"6917.861","OBJECT_ID":"2022-051BD","MEAN_MOTION_DOT":"0.00001317","NORAD_CAT_ID":"52587","EPOCH":"2023-02-14T14:23:35.123712","RA_OF_ASC_NODE":"102.9167","SITE":"AFWTR","LAUNCH_DATE":"2022-05-13","MEAN_MOTION":"15.08846403","GP_ID":"225434071","RCS_SIZE":"LARGE","ELEMENT_SET_NO":"999","ARG_OF_PERICENTER":"98.5187","ECCENTRICITY":"0.00010970","FILE":"3792084","BSTAR":"0.00010081000000","TLE_LINE1":"1 52587U 22051BD  23045.59971208  .00001317  00000-0  10081-3 0  9997","CLASSIFICATION_TYPE":"U","REF_FRAME":"TEME","CENTER_NAME":"EARTH","OBJECT_NAME":"STARLINK-3867","DECAY_DATE":null,"MEAN_ELEMENT_THEORY":"SGP4","PERIOD":"95.437","OBJECT_TYPE":"PAYLOAD","MEAN_MOTION_DDOT":"0.0000000000000","COUNTRY_CODE":"US","PERIAPSIS":"538.967","TIME_SYSTEM":"UTC","EPHEMERIS_TYPE":"0","INCLINATION":"53.2143"},{"COUNTRY_CODE":"US","PERIAPSIS":"538.901","TIME_SYSTEM":"UTC","INCLINATION":"53.2139","EPHEMERIS_TYPE":"0","REF_FRAME":"TEME","OBJECT_NAME":"STARLINK-3917","CENTER_NAME":"EARTH","TLE_LINE1":"1 52588U 22051BE  23045.59603555  .00040996  00000-0  25769-2 0  9999","CLASSIFICATION_TYPE":"U","PERIOD":"95.436","MEAN_MOTION_DDOT":"0.0000000000000","OBJECT_TYPE":"PAYLOAD","DECAY_DATE":null,"MEAN_ELEMENT_THEORY":"SGP4","LAUNCH_DATE":"2022-05-13","MEAN_MOTION":"15.08870530","RCS_SIZE":"LARGE","GP_ID":"225434810","SITE":"AFWTR","RA_OF_ASC_NODE":"102.9362","FILE":"3792084","BSTAR":"0.00257690000000","ELEMENT_SET_NO":"999","ARG_OF_PERICENTER":"95.2590","ECCENTRICITY":"0.00010860","APOAPSIS":"540.403","MEAN_ANOMALY":"264.8526","SEMIMAJOR_AXIS":"6917.787","TLE_LINE2":"2 52588  53.2139 102.9362 0001086  95.2590 264.8526 15.08870530 42647","REV_AT_EPOCH":"4264","EPOCH":"2023-02-14T14:18:17.471520","NORAD_CAT_ID":"52588","MEAN_MOTION_DOT":"0.00040996","OBJECT_ID":"2022-051BE"},{"ELEMENT_SET_NO":"999","ARG_OF_PERICENTER":"75.9529","ECCENTRICITY":"0.00011870","FILE":"3791349","BSTAR":"0.00019552000000","SITE":"AFETR","RA_OF_ASC_NODE":"270.4350","LAUNCH_DATE":"2022-05-14","MEAN_MOTION":"15.08824861","RCS_SIZE":"LARGE","GP_ID":"225394452","MEAN_MOTION_DOT":"0.00002824","OBJECT_ID":"2022-052A","NORAD_CAT_ID":"52598","EPOCH":"2023-02-14T00:54:48.036672","TLE_LINE2":"2 52598  53.2155 270.4350 0001187  75.9529 284.1595 15.08824861 42550","REV_AT_EPOCH":"4255","APOAPSIS":"540.613","MEAN_ANOMALY":"284.1595","SEMIMAJOR_AXIS":"6917.927","EPHEMERIS_TYPE":"0","INCLINATION":"53.2155","COUNTRY_CODE":"US","PERIAPSIS":"538.971","TIME_SYSTEM":"UTC","DECAY_DATE":null,"MEAN_ELEMENT_THEORY":"SGP4","PERIOD":"95.439","MEAN_MOTION_DDOT":"0.0000000000000","OBJECT_TYPE":"PAYLOAD","TLE_LINE1":"1 52598U 22052A   23045.03805598  .00002824  00000-0  19552-3 0  9993","CLASSIFICATION_TYPE":"U","REF_FRAME":"TEME","OBJECT_NAME":"STARLINK-4019","CENTER_NAME":"EARTH"}];
